{
  "type": "FeatureCollection",
  "features": [
    {
      "type": "Feature",
      "properties": {
        "norad_id": 40069,
        "name": "METEOR-M 2",
        "group": "weather",
        "lat": -77.97798939170107,
        "lon": 6.8265104038613655,
        "alt_km": 826.3156508241782,
        "timestamp": "2025-12-10T14:53:36.768647+00:00",
        "meta_object_name": "METEOR-M 2",
        "meta_object_id": "2014-037A",
        "meta_epoch": "2025-12-10T06:49:44.808960",
        "meta_mean_motion": 14.21385682,
        "meta_eccentricity": 0.00048582,
        "meta_inclination": 98.4902,
        "meta_ra_of_asc_node": 321.963,
        "meta_arg_of_pericenter": 218.1285,
        "meta_mean_anomaly": 141.955,
        "meta_ephemeris_type": 0,
        "meta_classification_type": "U",
        "meta_norad_cat_id": 40069,
        "meta_element_set_no": 999,
        "meta_rev_at_epoch": 59248,
        "meta_bstar": 0.0002799156,
        "meta_mean_motion_dot": 5.69e-06,
        "meta_mean_motion_ddot": 0,
        "tle_line1": "1 40069U 14037A   25344.28454640  .00000569  00000+0  27992-3 0  9996",
        "tle_line2": "2 40069  98.4902 321.9630 0004858 218.1285 141.9550 14.21385682592482"
      },
      "geometry": {
        "type": "Point",
        "coordinates": [
          6.8265104038613655,
          -77.97798939170107
        ]
      }
    },
    {
      "type": "Feature",
      "properties": {
        "norad_id": 40267,
        "name": "HIMAWARI-8",
        "group": "weather",
        "lat": 0.0019734963067829614,
        "lon": 83.65978150876175,
        "alt_km": 35790.76097860709,
        "timestamp": "2025-12-10T14:53:36.768657+00:00",
        "meta_object_name": "HIMAWARI-8",
        "meta_object_id": "2014-060A",
        "meta_epoch": "2025-12-10T05:37:12.298368",
        "meta_mean_motion": 1.00270473,
        "meta_eccentricity": 0.00012358,
        "meta_inclination": 0.0343,
        "meta_ra_of_asc_node": 206.8188,
        "meta_arg_of_pericenter": 92.0726,
        "meta_mean_anomaly": 5.2826,
        "meta_ephemeris_type": 0,
        "meta_classification_type": "U",
        "meta_norad_cat_id": 40267,
        "meta_element_set_no": 999,
        "meta_rev_at_epoch": 4086,
        "meta_bstar": 0,
        "meta_mean_motion_dot": -2.72e-06,
        "meta_mean_motion_ddot": 0,
        "tle_line1": "1 40267U 14060A   25344.23417012 -.00000272  00000+0  00000+0 0  9998",
        "tle_line2": "2 40267   0.0343 206.8188 0001235  92.0726   5.2826  1.00270473 40866"
      },
      "geometry": {
        "type": "Point",
        "coordinates": [
          83.65978150876175,
          0.0019734963067829614
        ]
      }
    },
    {
      "type": "Feature",
      "properties": {
        "norad_id": 40367,
        "name": "FENGYUN 2G",
        "group": "weather",
        "lat": -2.757755396518645,
        "lon": 42.710587511143636,
        "alt_km": 35797.731508895486,
        "timestamp": "2025-12-10T14:53:36.768667+00:00",
        "meta_object_name": "FENGYUN 2G",
        "meta_object_id": "2014-090A",
        "meta_epoch": "2025-12-09T19:11:01.159872",
        "meta_mean_motion": 1.00264939,
        "meta_eccentricity": 0.00030843,
        "meta_inclination": 5.1606,
        "meta_ra_of_asc_node": 75.1277,
        "meta_arg_of_pericenter": 192.3246,
        "meta_mean_anomaly": 198.6902,
        "meta_ephemeris_type": 0,
        "meta_classification_type": "U",
        "meta_norad_cat_id": 40367,
        "meta_element_set_no": 999,
        "meta_rev_at_epoch": 4010,
        "meta_bstar": 0,
        "meta_mean_motion_dot": -2.99e-06,
        "meta_mean_motion_ddot": 0,
        "tle_line1": "1 40367U 14090A   25343.79931898 -.00000299  00000+0  00000+0 0  9994",
        "tle_line2": "2 40367   5.1606  75.1277 0003084 192.3246 198.6902  1.00264939 40105"
      },
      "geometry": {
        "type": "Point",
        "coordinates": [
          42.710587511143636,
          -2.757755396518645
        ]
      }
    },
    {
      "type": "Feature",
      "properties": {
        "norad_id": 40732,
        "name": "METEOSAT-11 (MSG-4)",
        "group": "weather",
        "lat": -2.3825532900991546,
        "lon": -47.69541785411797,
        "alt_km": 35789.64711988536,
        "timestamp": "2025-12-10T14:53:36.768678+00:00",
        "meta_object_name": "METEOSAT-11 (MSG-4)",
        "meta_object_id": "2015-034A",
        "meta_epoch": "2025-12-09T22:35:38.584320",
        "meta_mean_motion": 1.00266624,
        "meta_eccentricity": 9.647e-05,
        "meta_inclination": 2.7284,
        "meta_ra_of_asc_node": 72.0094,
        "meta_arg_of_pericenter": 122.8009,
        "meta_mean_anomaly": 232.3625,
        "meta_ephemeris_type": 0,
        "meta_classification_type": "U",
        "meta_norad_cat_id": 40732,
        "meta_element_set_no": 999,
        "meta_rev_at_epoch": 531,
        "meta_bstar": 0,
        "meta_mean_motion_dot": 6.4e-07,
        "meta_mean_motion_ddot": 0,
        "tle_line1": "1 40732U 15034A   25343.94141880  .00000064  00000+0  00000+0 0  9999",
        "tle_line2": "2 40732   2.7284  72.0094 0000964 122.8009 232.3625  1.00266624  5313"
      },
      "geometry": {
        "type": "Point",
        "coordinates": [
          -47.69541785411797,
          -2.3825532900991546
        ]
      }
    },
    {
      "type": "Feature",
      "properties": {
        "norad_id": 41105,
        "name": "ELEKTRO-L 2",
        "group": "weather",
        "lat": -3.638388413022395,
        "lon": -71.65136828164397,
        "alt_km": 35771.01537717932,
        "timestamp": "2025-12-10T14:53:36.768688+00:00",
        "meta_object_name": "ELEKTRO-L 2",
        "meta_object_id": "2015-074A",
        "meta_epoch": "2025-12-09T01:31:10.511904",
        "meta_mean_motion": 1.00271905,
        "meta_eccentricity": 0.00038363,
        "meta_inclination": 6.2161,
        "meta_ra_of_asc_node": 72.8685,
        "meta_arg_of_pericenter": 198.9202,
        "meta_mean_anomaly": 174.5582,
        "meta_ephemeris_type": 0,
        "meta_classification_type": "U",
        "meta_norad_cat_id": 41105,
        "meta_element_set_no": 999,
        "meta_rev_at_epoch": 3660,
        "meta_bstar": 0,
        "meta_mean_motion_dot": -1.16e-06,
        "meta_mean_motion_ddot": 0,
        "tle_line1": "1 41105U 15074A   25343.06331611 -.00000116  00000+0  00000+0 0  9993",
        "tle_line2": "2 41105   6.2161  72.8685 0003836 198.9202 174.5582  1.00271905 36608"
      },
      "geometry": {
        "type": "Point",
        "coordinates": [
          -71.65136828164397,
          -3.638388413022395
        ]
      }
    },
    {
      "type": "Feature",
      "properties": {
        "norad_id": 41752,
        "name": "INSAT-3DR",
        "group": "weather",
        "lat": -0.0674460033586648,
        "lon": 17.155619785863284,
        "alt_km": 35804.187361119104,
        "timestamp": "2025-12-10T14:53:36.768698+00:00",
        "meta_object_name": "INSAT-3DR",
        "meta_object_id": "2016-054A",
        "meta_epoch": "2025-12-09T22:15:38.661120",
        "meta_mean_motion": 1.00270431,
        "meta_eccentricity": 0.00144925,
        "meta_inclination": 0.0851,
        "meta_ra_of_asc_node": 86.5837,
        "meta_arg_of_pericenter": 183.7779,
        "meta_mean_anomaly": 216.4656,
        "meta_ephemeris_type": 0,
        "meta_classification_type": "U",
        "meta_norad_cat_id": 41752,
        "meta_element_set_no": 999,
        "meta_rev_at_epoch": 3392,
        "meta_bstar": 0,
        "meta_mean_motion_dot": -7.4e-07,
        "meta_mean_motion_ddot": 0,
        "tle_line1": "1 41752U 16054A   25343.92753080 -.00000074  00000+0  00000+0 0  9996",
        "tle_line2": "2 41752   0.0851  86.5837 0014492 183.7779 216.4656  1.00270431 33929"
      },
      "geometry": {
        "type": "Point",
        "coordinates": [
          17.155619785863284,
          -0.0674460033586648
        ]
      }
    },
    {
      "type": "Feature",
      "properties": {
        "norad_id": 41836,
        "name": "HIMAWARI-9",
        "group": "weather",
        "lat": 0.017702911207515853,
        "lon": 83.7764897036025,
        "alt_km": 35791.12700780114,
        "timestamp": "2025-12-10T14:53:36.768709+00:00",
        "meta_object_name": "HIMAWARI-9",
        "meta_object_id": "2016-064A",
        "meta_epoch": "2025-12-09T21:15:38.716128",
        "meta_mean_motion": 1.00273683,
        "meta_eccentricity": 0.00013001,
        "meta_inclination": 0.0242,
        "meta_ra_of_asc_node": 77.2412,
        "meta_arg_of_pericenter": 184.4827,
        "meta_mean_anomaly": 276.8355,
        "meta_ephemeris_type": 0,
        "meta_classification_type": "U",
        "meta_norad_cat_id": 41836,
        "meta_element_set_no": 999,
        "meta_rev_at_epoch": 3331,
        "meta_bstar": 0,
        "meta_mean_motion_dot": -2.71e-06,
        "meta_mean_motion_ddot": 0,
        "tle_line1": "1 41836U 16064A   25343.88586477 -.00000271  00000+0  00000+0 0  9998",
        "tle_line2": "2 41836   0.0242  77.2412 0001300 184.4827 276.8355  1.00273683 33319"
      },
      "geometry": {
        "type": "Point",
        "coordinates": [
          83.7764897036025,
          0.017702911207515853
        ]
      }
    }
  ]
}